NORAD_CAT_ID,OBJECT_NAME,OBJECT_TYPE,EPOCH,MEAN_MOTION,ECCENTRICITY,INCLINATION,RA_OF_ASC_NODE,ARG_OF_PERICENTER,MEAN_ANOMALY,BSTAR,MEAN_MOTION_DOT,MEAN_MOTION_DDOT,TLE_LINE0,TLE_LINE1,TLE_LINE2,SEMIMAJOR_AXIS,PERIOD,APOGEE,PERIGEE,DECAYED
52090.0,STARLINK-3712,PAYLOAD,2024-05-24 10:15:31,15.0884933,0.0001621,53.2154,146.2171,100.2771,259.8404,0.00012422,1.69e-05,0.0,0 STARLINK-3712,1 52090U 22029C   24145.42745261  .00001690  00000-0  12422-3 0  9998,2 52090  53.2154 146.2171 0001621 100.2771 259.8404 15.08849330121881,6917.852,95.437,540.838,538.595,0.0
52090.0,STARLINK-3712,PAYLOAD,2024-05-24 22:58:37,15.08838263,0.0001637,53.2149,143.8378,97.8485,262.2693,4.3597e-05,4.06e-06,0.0,0 STARLINK-3712,1 52090U 22029C   24145.95737764  .00000406  00000-0  43597-4 0  9997,2 52090  53.2149 143.8378 0001637  97.8485 262.2693 15.08838263121967,6917.886,95.438,540.883,538.618,0.0
52090.0,STARLINK-3712,PAYLOAD,2024-05-25 03:44:46,15.08835518,0.0001652,53.2152,142.9451,101.0775,259.0403,3.76e-05,3.1e-06,0.0,0 STARLINK-3712,1 52090U 22029C   24146.15609945  .00000310  00000-0  37600-4 0  9991,2 52090  53.2152 142.9451 0001652 101.0775 259.0403 15.08835518121996,6917.894,95.438,540.902,538.616,0.0
52090.0,STARLINK-3712,PAYLOAD,2024-05-25 08:30:56,15.08837432,0.0001549,53.2152,142.0542,99.5576,260.5591,3.4458e-05,2.6e-06,0.0,0 STARLINK-3712,1 52090U 22029C   24146.35481871  .00000260  00000-0  34458-4 0  9991,2 52090  53.2152 142.0542 0001549  99.5576 260.5591 15.08837432122020,6917.888,95.438,540.825,538.682,0.0
52090.0,STARLINK-3712,PAYLOAD,2024-05-26 05:10:57,15.08837241,0.0001515,53.2163,138.1891,94.9217,265.1948,9.3836e-06,-1.39e-06,0.0,0 STARLINK-3712,1 52090U 22029C   24147.21594551 -.00000139  00000-0  93836-5 0  9999,2 52090  53.2163 138.1891 0001515  94.9217 265.1948 15.08837241122158,6917.889,95.438,540.802,538.706,0.0
52090.0,STARLINK-3712,PAYLOAD,2024-05-26 08:21:43,15.08840542,0.000161,53.2166,137.5928,94.7778,265.3398,-3.0414e-05,-7.72e-06,0.0,0 STARLINK-3712,1 52090U 22029C   24147.34842417 -.00000772  00000-0 -30414-4 0  9996,2 52090  53.2166 137.5928 0001610  94.7778 265.3398 15.08840542122172,6917.879,95.438,540.858,538.63,0.0
52090.0,STARLINK-3712,PAYLOAD,2024-05-26 22:40:12,15.08837536,0.0001572,53.2169,134.9179,90.4028,269.7144,0.00012131,1.643e-05,0.0,0 STARLINK-3712,1 52090U 22029C   24147.94458446  .00001643  00000-0  12131-3 0  9998,2 52090  53.2169 134.9179 0001572  90.4028 269.7144 15.08837536122268,6917.888,95.438,540.84,538.665,0.0
52090.0,STARLINK-3712,PAYLOAD,2024-05-27 06:37:07,15.08837607,0.0001388,53.2171,133.4304,98.5254,261.5896,0.00011442,1.533e-05,0.0,0 STARLINK-3712,1 52090U 22029C   24148.27578507  .00001533  00000-0  11442-3 0  9998,2 52090  53.2171 133.4304 0001388  98.5254 261.5896 15.08837607122319,6917.888,95.438,540.713,538.793,0.0
52090.0,STARLINK-3712,PAYLOAD,2024-05-27 22:30:59,15.08837676,0.0001535,53.2169,130.4577,91.884,268.2328,9.2513e-05,1.185e-05,0.0,0 STARLINK-3712,1 52090U 22029C   24148.93818720  .00001185  00000-0  92513-4 0  9997,2 52090  53.2169 130.4577 0001535  91.8840 268.2328 15.08837676122417,6917.887,95.438,540.814,538.691,0.0
52090.0,STARLINK-3712,PAYLOAD,2024-05-28 06:27:54,15.08840864,0.000152,53.2168,128.9708,92.0629,268.0538,0.00011055,1.472e-05,0.0,0 STARLINK-3712,1 52090U 22029C   24149.26938532  .00001472  00000-0  11055-3 0  9998,2 52090  53.2168 128.9708 0001520  92.0629 268.0538 15.08840864122465,6917.878,95.438,540.794,538.691,0.0
52090.0,STARLINK-3712,PAYLOAD,2024-05-28 22:21:46,15.08842689,0.0001566,53.217,125.9974,86.443,273.6741,9.2616e-05,1.186e-05,0.0,0 STARLINK-3712,1 52090U 22029C   24149.93178453  .00001186  00000-0  92616-4 0  9995,2 52090  53.2170 125.9974 0001566  86.4430 273.6741 15.08842689122563,6917.872,95.437,540.821,538.654,0.0
52090.0,STARLINK-3712,PAYLOAD,2024-05-29 04:43:18,15.08843292,0.0001561,53.217,124.8079,86.9605,273.1565,9.0287e-05,1.149e-05,0.0,0 STARLINK-3712,1 52090U 22029C   24150.19674377  .00001149  00000-0  90287-4 0  9992,2 52090  53.2170 124.8079 0001561  86.9605 273.1565 15.08843292122606,6917.87,95.437,540.815,538.655,0.0
52090.0,STARLINK-3712,PAYLOAD,2024-05-29 07:54:04,15.08845331,0.0001535,53.2169,124.2127,90.1373,269.9795,0.00010077,1.316e-05,0.0,0 STARLINK-3712,1 52090U 22029C   24150.32922161  .00001316  00000-0  10077-3 0  9998,2 52090  53.2169 124.2127 0001535  90.1373 269.9795 15.08845331122628,6917.864,95.437,540.791,538.667,0.0
52090.0,STARLINK-3712,PAYLOAD,2024-05-30 04:34:05,15.08841459,0.0001526,53.2167,120.346,92.6203,267.4964,3.4346e-05,2.59e-06,0.0,0 STARLINK-3712,1 52090U 22029C   24151.19034604  .00000259  00000-0  34346-4 0  9991,2 52090  53.2167 120.3460 0001526  92.6203 267.4964 15.08841459122754,6917.876,95.437,540.797,538.685,0.0
52090.0,STARLINK-3712,PAYLOAD,2024-05-30 07:44:52,15.0884218,0.000152,53.2166,119.7511,94.3895,265.7271,3.7844e-05,3.14e-06,0.0,0 STARLINK-3712,1 52090U 22029C   24151.32282510  .00000314  00000-0  37844-4 0  9995,2 52090  53.2166 119.7511 0001520  94.3895 265.7271 15.08842180122778,6917.874,95.437,540.79,538.687,0.0
52090.0,STARLINK-3712,PAYLOAD,2024-05-31 04:24:52,15.08844809,0.0001605,53.2175,115.8852,103.4564,256.6607,5.4939e-05,5.87e-06,0.0,0 STARLINK-3712,1 52090U 22029C   24152.18394176  .00000587  00000-0  54939-4 0  9998,2 52090  53.2175 115.8852 0001605 103.4564 256.6607 15.08844809122909,6917.866,95.437,540.841,538.62,0.0
52090.0,STARLINK-3712,PAYLOAD,2024-05-31 20:18:44,15.08833437,0.0001517,53.2174,112.9124,91.2582,268.8584,2.3456e-05,8.5e-07,0.0,0 STARLINK-3712,1 52090U 22029C   24152.84635087  .00000085  00000-0  23456-4 0  9993,2 52090  53.2174 112.9124 0001517  91.2582 268.8584 15.08833437123000,6917.9,95.438,540.815,538.716,0.0
52090.0,STARLINK-3712,PAYLOAD,2024-06-01 13:47:59,15.08823614,0.0001299,53.2172,109.6427,93.2263,266.8877,0.00019106,2.753e-05,0.0,0 STARLINK-3712,1 52090U 22029C   24153.57499602  .00002753  00000-0  19106-3 0  9995,2 52090  53.2172 109.6427 0001299  93.2263 266.8877 15.08823614123113,6917.93,95.439,540.694,538.897,0.0
52090.0,STARLINK-3712,PAYLOAD,2024-06-02 02:31:04,15.08839239,0.0001388,53.2173,107.2627,104.0683,256.0464,1.1601e-05,-1.03e-06,0.0,0 STARLINK-3712,1 52090U 22029C   24154.10491109 -.00000103  00000-0  11601-4 0  9990,2 52090  53.2173 107.2627 0001388 104.0683 256.0464 15.08839239123197,6917.883,95.438,540.708,538.788,0.0
52090.0,STARLINK-3712,PAYLOAD,2024-06-02 13:38:46,15.0884073,0.0001266,53.2175,105.1804,86.4731,273.6406,2.3262e-05,8.2e-07,0.0,0 STARLINK-3712,1 52090U 22029C   24154.56859065  .00000082  00000-0  23262-4 0  9990,2 52090  53.2175 105.1804 0001266  86.4731 273.6406 15.08840730123262,6917.878,95.438,540.619,538.867,0.0
52090.0,STARLINK-3712,PAYLOAD,2024-06-03 03:57:14,15.0884182,0.0001228,53.2176,102.5042,83.8166,276.2966,0.00011913,1.609e-05,0.0,0 STARLINK-3712,1 52090U 22029C   24155.16474982  .00001609  00000-0  11913-3 0  9993,2 52090  53.2176 102.5042 0001228  83.8166 276.2966 15.08841820123350,6917.875,95.437,540.589,538.89,0.0
52090.0,STARLINK-3712,PAYLOAD,2024-06-03 13:29:32,15.08850547,0.0001141,53.2182,100.7193,84.1211,275.9911,-2.8829e-05,-7.47e-06,0.0,0 STARLINK-3712,1 52090U 22029C   24155.56218672 -.00000747  00000-0 -28829-4 0  9998,2 52090  53.2182 100.7193 0001141  84.1211 275.9911 15.08850547123412,6917.848,95.437,540.502,538.924,0.0
52090.0,STARLINK-3712,PAYLOAD,2024-06-04 05:23:24,15.08849186,0.0001405,53.2179,97.7446,85.5651,274.5501,0.00010306,1.353e-05,0.0,0 STARLINK-3712,1 52090U 22029C   24156.22458616  .00001353  00000-0  10306-3 0  9998,2 52090  53.2179  97.7446 0001405  85.5651 274.5501 15.08849186123518,6917.852,95.437,540.689,538.745,0.0
52090.0,STARLINK-3712,PAYLOAD,2024-06-04 13:20:20,15.08844751,0.0001235,53.2174,96.2606,87.7369,272.3764,3.0914e-05,2.04e-06,0.0,0 STARLINK-3712,1 52090U 22029C   24156.55579001  .00000204  00000-0  30914-4 0  9998,2 52090  53.2174  96.2606 0001235  87.7369 272.3764 15.08844751123561,6917.866,95.437,540.585,538.877,0.0
52090.0,STARLINK-3712,PAYLOAD,2024-06-05 13:11:07,15.08846228,0.0001159,53.2161,91.798,100.2364,259.8758,-5.916e-06,-3.82e-06,0.0,0 STARLINK-3712,1 52090U 22029C   24157.54938761 -.00000382  00000-0 -59160-5 0  9994,2 52090  53.2161  91.7980 0001159 100.2364 259.8758 15.08846228123714,6917.861,95.437,540.528,538.925,0.0
52090.0,STARLINK-3712,PAYLOAD,2024-06-06 01:54:12,15.08842433,0.0001464,53.2174,89.4184,97.2135,262.9024,8.0115e-05,9.87e-06,0.0,0 STARLINK-3712,1 52090U 22029C   24158.07930913  .00000987  00000-0  80115-4 0  9996,2 52090  53.2174  89.4184 0001464  97.2135 262.9024 15.08842433123791,6917.873,95.437,540.751,538.725,0.0
52090.0,STARLINK-3712,PAYLOAD,2024-06-06 13:01:54,15.08846448,0.0001284,53.2184,87.3382,102.0927,258.0209,5.0277e-06,-2.08e-06,0.0,0 STARLINK-3712,1 52090U 22029C   24158.54298832 -.00000208  00000-0  50277-5 0  9999,2 52090  53.2184  87.3382 0001284 102.0927 258.0209 15.08846448123862,6917.861,95.437,540.614,538.837,0.0
52090.0,STARLINK-3712,PAYLOAD,2024-06-07 22:25:00,15.08837266,0.0001705,53.2172,81.0918,109.3001,250.8175,4.4434e-05,4.19e-06,0.0,0 STARLINK-3712,1 52090U 22029C   24159.93403550  .00000419  00000-0  44434-4 0  9998,2 52090  53.2172  81.0918 0001705 109.3001 250.8175 15.08837266124070,6917.889,95.438,540.933,538.574,0.0
52090.0,STARLINK-3712,PAYLOAD,2024-06-08 04:46:32,15.08846596,0.000123,53.2179,79.9048,87.7122,272.4011,0.00012966,1.777e-05,0.0,0 STARLINK-3712,1 52090U 22029C   24160.19898815  .00001777  00000-0  12966-3 0  9992,2 52090  53.2179  79.9048 0001230  87.7122 272.4011 15.08846596124113,6917.86,95.437,540.576,538.874,0.0
52090.0,STARLINK-3712,PAYLOAD,2024-06-08 19:05:02,15.08832632,0.0001863,53.2162,77.2256,113.2058,246.9131,-2.3471e-05,-6.62e-06,0.0,0 STARLINK-3712,1 52090U 22029C   24160.79516280 -.00000662  00000-0 -23471-4 0  9999,2 52090  53.2162  77.2256 0001863 113.2058 246.9131 15.08832632124207,6917.903,95.438,541.057,538.479,0.0
